     2.10           G: GLONASS NAV DATA                     RINEX VERSION / TYPE
teqc  2015Jun23                         20220111 01:25:44UTCPGM / RUN BY / DATE
Linux 2.4.21-27.ELsmp|Opteron|gcc -static|Linux x86_64|=+   COMMENT
  2021    12    18    1.396983861923D-09                    CORR TO SYSTEM TIME
                                                            END OF HEADER
17 21 12 19 22 45  0.0 4.850625991821D-04 2.728484105319D-12 8.100000000000D+04
   -6.634739257812D+03-5.314350128174D-01 1.862645149231D-09 0.000000000000D+00
    2.217594921875D+04 1.378316879272D+00-1.862645149231D-09 4.000000000000D+00
    1.068761376953D+04-3.197807312012D+00-0.000000000000D+00 0.000000000000D+00
23 21 12 19 22 45  0.0-2.387259155512D-05-9.094947017729D-13 8.100000000000D+04
   -1.466901318359D+04 1.402363777161D+00-2.793967723846D-09 0.000000000000D+00
    8.788612304688D+03-2.189364433289D+00-2.793967723846D-09 3.000000000000D+00
   -1.892695410156D+04-2.103470802307D+00-0.000000000000D+00 0.000000000000D+00
24 21 12 19 22 45  0.0 7.192976772785D-05 1.818989403546D-12 8.100000000000D+04
   -1.476181494141D+04 6.078662872314D-01-9.313225746155D-10 0.000000000000D+00
    1.966328808594D+04-7.207546234131D-01-2.793967723846D-09 2.000000000000D+00
   -6.736231933594D+03-3.425269126892D+00-0.000000000000D+00 0.000000000000D+00
18 21 12 19 22 45  0.0 1.010512933135D-04 9.094947017729D-13 8.169000000000D+04
    4.293716796875D+03-1.383290290833D+00 4.656612873077D-09 0.000000000000D+00
    1.245853662109D+04 2.654835700989D+00 0.000000000000D+00-3.000000000000D+00
    2.187224462891D+04-1.237338066101D+00-0.000000000000D+00 0.000000000000D+00
24 21 12 19 23 15  0.0 7.193256169558D-05 1.818989403546D-12 8.280000000000D+04
   -1.346702050781D+04 7.874574661255D-01-1.862645149231D-09 0.000000000000D+00
    1.762284228516D+04-1.542849540710D+00-2.793967723846D-09 2.000000000000D+00
   -1.256095947266D+04-3.004507064819D+00-0.000000000000D+00 0.000000000000D+00
 3 21 12 19 23 15  0.0 4.845019429922D-05 9.094947017729D-13 8.280000000000D+04
    4.732740234375D+03-1.359308242798D+00 3.725290298462D-09 0.000000000000D+00
    1.857917041016D+04-1.862751007080D+00-0.000000000000D+00 5.000000000000D+00
    1.689548291016D+04 2.428872108459D+00 0.000000000000D+00 0.000000000000D+00
 4 21 12 19 23 15  0.0 1.196293160319D-04 1.818989403546D-12 8.280000000000D+04
    1.545968457031D+04 2.708530426025D-02 3.725290298462D-09 0.000000000000D+00
    2.025341064453D+04-2.617616653442D-01-0.000000000000D+00 6.000000000000D+00
    1.387291015625D+03 3.572832107544D+00 2.793967723846D-09 0.000000000000D+00
14 21 12 19 23 15  0.0 7.227435708046D-05 0.000000000000D+00 8.280000000000D+04
   -5.843744140625D+03-2.950370788574D+00-2.793967723846D-09 0.000000000000D+00
    1.170478613281D+04 5.363397598267D-01-1.862645149231D-09-7.000000000000D+00
   -2.189010742188D+04 1.073002815247D+00 0.000000000000D+00 0.000000000000D+00
17 21 12 19 23 15  0.0 4.850681871176D-04 2.728484105319D-12 8.280000000000D+04
   -7.109391113281D+03-2.458858489990D-02 9.313225746155D-10 0.000000000000D+00
    2.404382861328D+04 6.642112731934D-01-2.793967723846D-09 4.000000000000D+00
    4.592145019531D+03-3.530910491943D+00-0.000000000000D+00 0.000000000000D+00
18 21 12 19 23 15  0.0 1.010550186038D-04 9.094947017729D-13 8.280000000000D+04
    2.313748046875D+03-8.146877288818D-01 3.725290298462D-09 0.000000000000D+00
    1.709644482422D+04 2.447527885437D+00-9.313225746155D-10-3.000000000000D+00
    1.883110205078D+04-2.119790077209D+00-0.000000000000D+00 0.000000000000D+00
13 21 12 19 23 15  0.0-1.584831625223D-05-0.000000000000D+00 8.289000000000D+04
   -2.193363037109D+04-1.292642593384D+00-3.725290298462D-09 0.000000000000D+00
    8.604660644531D+03 3.688669204712D-01-1.862645149231D-09-2.000000000000D+00
   -9.784376464844D+03 3.228195190430D+00-1.862645149231D-09 0.000000000000D+00
24 21 12 19 23 45  0.0 7.193442434072D-05 9.094947017729D-13 8.460000000000D+04
   -1.208041796875D+04 7.128295898438D-01-3.725290298462D-09 0.000000000000D+00
    1.415702636719D+04-2.285267829895D+00-1.862645149231D-09 2.000000000000D+00
   -1.741228759766D+04-2.350743293762D+00-0.000000000000D+00 0.000000000000D+00
 3 21 12 19 23 45  0.0 4.845205694437D-05 9.094947017729D-13 8.460000000000D+04
    1.715750976562D+03-1.981459617615D+00 2.793967723846D-09 0.000000000000D+00
    1.507342773438D+04-1.985660552979D+00-9.313225746155D-10 5.000000000000D+00
    2.056167041016D+04 1.618344306946D+00-0.000000000000D+00 0.000000000000D+00
 4 21 12 19 23 45  0.0 1.196330413222D-04 1.818989403546D-12 8.460000000000D+04
    1.493085107422D+04-6.374988555908D-01 3.725290298462D-09 0.000000000000D+00
    1.922053466797D+04-8.508253097534D-01-9.313225746155D-10 6.000000000000D+00
    7.681828613281D+03 3.375757217407D+00 1.862645149231D-09 0.000000000000D+00
14 21 12 19 23 45  0.0 7.227435708046D-05 0.000000000000D+00 8.460000000000D+04
   -1.077150488281D+04-2.483837127686D+00-3.725290298462D-09 0.000000000000D+00
    1.296930566406D+04 8.411092758179D-01-1.862645149231D-09-7.000000000000D+00
   -1.913697851562D+04 1.966126441956D+00-0.000000000000D+00 0.000000000000D+00
17 21 12 19 23 45  0.0 4.850737750530D-04 2.728484105319D-12 8.460000000000D+04
   -6.847869140625D+03 2.758970260620D-01-0.000000000000D+00 0.000000000000D+00
    2.447802880859D+04-1.974945068359D-01-2.793967723846D-09 4.000000000000D+00
   -1.859137207031D+03-3.590519905090D+00-0.000000000000D+00 0.000000000000D+00
18 21 12 19 23 45  0.0 1.010568812490D-04 9.094947017729D-13 8.460000000000D+04
    1.334165039062D+03-2.901659011841D-01 2.793967723846D-09 0.000000000000D+00
    2.109361181641D+04 1.948397636414D+00-1.862645149231D-09-3.000000000000D+00
    1.433934082031D+04-2.838761329651D+00-0.000000000000D+00 0.000000000000D+00
13 21 12 19 23 45  0.0-1.585017889738D-05-0.000000000000D+00 8.463000000000D+04
   -2.349030224609D+04-4.313793182373D-01-3.725290298462D-09 0.000000000000D+00
    9.239653808594D+03 2.952728271484D-01-1.862645149231D-09-2.000000000000D+00
   -3.670497558594D+03 3.520921707153D+00-1.862645149231D-09 0.000000000000D+00
